{
  "type": "FeatureCollection",
  "features": [
    {
      "type": "Feature",
      "properties": {
        "norad_id": 36828,
        "name": "BEIDOU-2 IGSO-1 (C06)",
        "group": "beidou",
        "lat": 50.82339124668232,
        "lon": -133.10019067886677,
        "alt_km": 35951.17631834566,
        "timestamp": "2025-12-04T03:47:54.808303+00:00",
        "meta_object_name": "BEIDOU-2 IGSO-1 (C06)",
        "meta_object_id": "2010-036A",
        "meta_epoch": "2025-12-03T10:50:44.942784",
        "meta_mean_motion": 1.00278626,
        "meta_eccentricity": 0.0051265,
        "meta_inclination": 54.2837,
        "meta_ra_of_asc_node": 164.7326,
        "meta_arg_of_pericenter": 215.7728,
        "meta_mean_anomaly": 322.4753,
        "meta_ephemeris_type": 0,
        "meta_classification_type": "U",
        "meta_norad_cat_id": 36828,
        "meta_element_set_no": 999,
        "meta_rev_at_epoch": 5613,
        "meta_bstar": 0,
        "meta_mean_motion_dot": -2.4e-07,
        "meta_mean_motion_ddot": 0,
        "tle_line1": "1 36828U 10036A   25337.45190906 -.00000024  00000+0  00000+0 0  9996",
        "tle_line2": "2 36828  54.2837 164.7326 0051265 215.7728 322.4753  1.00278626 56131"
      },
      "geometry": {
        "type": "Point",
        "coordinates": [
          -133.10019067886677,
          50.82339124668232
        ]
      }
    },
    {
      "type": "Feature",
      "properties": {
        "norad_id": 37210,
        "name": "BEIDOU-2 G4 (C04)",
        "group": "beidou",
        "lat": -2.063509769384368,
        "lon": -69.708042090325,
        "alt_km": 35747.27211445568,
        "timestamp": "2025-12-04T03:47:54.808326+00:00",
        "meta_object_name": "BEIDOU-2 G4 (C04)",
        "meta_object_id": "2010-057A",
        "meta_epoch": "2025-12-03T12:01:38.692992",
        "meta_mean_motion": 1.00271318,
        "meta_eccentricity": 0.0010914,
        "meta_inclination": 3.16,
        "meta_ra_of_asc_node": 69.961,
        "meta_arg_of_pericenter": 188.4016,
        "meta_mean_anomaly": 154.7087,
        "meta_ephemeris_type": 0,
        "meta_classification_type": "U",
        "meta_norad_cat_id": 37210,
        "meta_element_set_no": 999,
        "meta_rev_at_epoch": 5532,
        "meta_bstar": 0,
        "meta_mean_motion_dot": -9.5e-07,
        "meta_mean_motion_ddot": 0,
        "tle_line1": "1 37210U 10057A   25337.50114228 -.00000095  00000+0  00000+0 0  9992",
        "tle_line2": "2 37210   3.1600  69.9610 0010914 188.4016 154.7087  1.00271318 55329"
      },
      "geometry": {
        "type": "Point",
        "coordinates": [
          -69.708042090325,
          -2.063509769384368
        ]
      }
    },
    {
      "type": "Feature",
      "properties": {
        "norad_id": 37256,
        "name": "BEIDOU-2 IGSO-2 (C07)",
        "group": "beidou",
        "lat": -26.06160306353169,
        "lon": -111.96744482517506,
        "alt_km": 35846.91524370647,
        "timestamp": "2025-12-04T03:47:54.808341+00:00",
        "meta_object_name": "BEIDOU-2 IGSO-2 (C07)",
        "meta_object_id": "2010-068A",
        "meta_epoch": "2025-12-02T18:32:21.656832",
        "meta_mean_motion": 1.00289076,
        "meta_eccentricity": 0.00492778,
        "meta_inclination": 47.9063,
        "meta_ra_of_asc_node": 274.2734,
        "meta_arg_of_pericenter": 216.2016,
        "meta_mean_anomaly": 326.6202,
        "meta_ephemeris_type": 0,
        "meta_classification_type": "U",
        "meta_norad_cat_id": 37256,
        "meta_element_set_no": 999,
        "meta_rev_at_epoch": 5482,
        "meta_bstar": 0,
        "meta_mean_motion_dot": -2.27e-06,
        "meta_mean_motion_ddot": 0,
        "tle_line1": "1 37256U 10068A   25336.77247288 -.00000227  00000+0  00000+0 0  9992",
        "tle_line2": "2 37256  47.9063 274.2734 0049277 216.2016 326.6202  1.00289076 54823"
      },
      "geometry": {
        "type": "Point",
        "coordinates": [
          -111.96744482517506,
          -26.06160306353169
        ]
      }
    },
    {
      "type": "Feature",
      "properties": {
        "norad_id": 37384,
        "name": "BEIDOU-2 IGSO-3 (C08)",
        "group": "beidou",
        "lat": -14.059746505564213,
        "lon": -130.3654086658862,
        "alt_km": 35640.01386441547,
        "timestamp": "2025-12-04T03:47:54.808354+00:00",
        "meta_object_name": "BEIDOU-2 IGSO-3 (C08)",
        "meta_object_id": "2011-013A",
        "meta_epoch": "2025-11-29T21:04:05.094336",
        "meta_mean_motion": 1.00273417,
        "meta_eccentricity": 0.00356655,
        "meta_inclination": 62.1255,
        "meta_ra_of_asc_node": 42.0418,
        "meta_arg_of_pericenter": 186.0158,
        "meta_mean_anomaly": 264.7363,
        "meta_ephemeris_type": 0,
        "meta_classification_type": "U",
        "meta_norad_cat_id": 37384,
        "meta_element_set_no": 999,
        "meta_rev_at_epoch": 5366,
        "meta_bstar": 0,
        "meta_mean_motion_dot": -1.94e-06,
        "meta_mean_motion_ddot": 0,
        "tle_line1": "1 37384U 11013A   25333.87783674 -.00000194  00000+0  00000+0 0  9990",
        "tle_line2": "2 37384  62.1255  42.0418 0035665 186.0158 264.7363  1.00273417 53667"
      },
      "geometry": {
        "type": "Point",
        "coordinates": [
          -130.3654086658862,
          -14.059746505564213
        ]
      }
    },
    {
      "type": "Feature",
      "properties": {
        "norad_id": 37763,
        "name": "BEIDOU-2 IGSO-4 (C09)",
        "group": "beidou",
        "lat": 42.85526852626131,
        "lon": -151.17470585369603,
        "alt_km": 36402.612410387854,
        "timestamp": "2025-12-04T03:47:54.808367+00:00",
        "meta_object_name": "BEIDOU-2 IGSO-4 (C09)",
        "meta_object_id": "2011-038A",
        "meta_epoch": "2025-12-01T12:32:09.960864",
        "meta_mean_motion": 1.00284074,
        "meta_eccentricity": 0.01487808,
        "meta_inclination": 54.5808,
        "meta_ra_of_asc_node": 167.4476,
        "meta_arg_of_pericenter": 230.2031,
        "meta_mean_anomaly": 315.0387,
        "meta_ephemeris_type": 0,
        "meta_classification_type": "U",
        "meta_norad_cat_id": 37763,
        "meta_element_set_no": 999,
        "meta_rev_at_epoch": 5266,
        "meta_bstar": 0,
        "meta_mean_motion_dot": 1.01e-06,
        "meta_mean_motion_ddot": 0,
        "tle_line1": "1 37763U 11038A   25335.52233751  .00000101  00000+0  00000+0 0  9995",
        "tle_line2": "2 37763  54.5808 167.4476 0148780 230.2031 315.0387  1.00284074 52664"
      },
      "geometry": {
        "type": "Point",
        "coordinates": [
          -151.17470585369603,
          42.85526852626131
        ]
      }
    },
    {
      "type": "Feature",
      "properties": {
        "norad_id": 37948,
        "name": "BEIDOU-2 IGSO-5 (C10)",
        "group": "beidou",
        "lat": -34.763631146034655,
        "lon": -124.62930666710021,
        "alt_km": 35762.468274206636,
        "timestamp": "2025-12-04T03:47:54.808379+00:00",
        "meta_object_name": "BEIDOU-2 IGSO-5 (C10)",
        "meta_object_id": "2011-073A",
        "meta_epoch": "2025-12-02T19:23:39.606720",
        "meta_mean_motion": 1.00292511,
        "meta_eccentricity": 0.01107055,
        "meta_inclination": 48.0402,
        "meta_ra_of_asc_node": 273.9813,
        "meta_arg_of_pericenter": 222.1881,
        "meta_mean_anomaly": 319.0044,
        "meta_ephemeris_type": 0,
        "meta_classification_type": "U",
        "meta_norad_cat_id": 37948,
        "meta_element_set_no": 999,
        "meta_rev_at_epoch": 5116,
        "meta_bstar": 0,
        "meta_mean_motion_dot": -1.77e-06,
        "meta_mean_motion_ddot": 0,
        "tle_line1": "1 37948U 11073A   25336.80809730 -.00000177  00000+0  00000+0 0  9991",
        "tle_line2": "2 37948  48.0402 273.9813 0110705 222.1881 319.0044  1.00292511 51167"
      },
      "geometry": {
        "type": "Point",
        "coordinates": [
          -124.62930666710021,
          -34.763631146034655
        ]
      }
    },
    {
      "type": "Feature",
      "properties": {
        "norad_id": 38091,
        "name": "BEIDOU-2 G5 (C05)",
        "group": "beidou",
        "lat": 2.706215455227269,
        "lon": -171.19825335711184,
        "alt_km": 35800.82147570531,
        "timestamp": "2025-12-04T03:47:54.808397+00:00",
        "meta_object_name": "BEIDOU-2 G5 (C05)",
        "meta_object_id": "2012-008A",
        "meta_epoch": "2025-12-03T12:13:51.619008",
        "meta_mean_motion": 1.00272325,
        "meta_eccentricity": 0.0012325,
        "meta_inclination": 3.0845,
        "meta_ra_of_asc_node": 70.7341,
        "meta_arg_of_pericenter": 225.5074,
        "meta_mean_anomaly": 18.5234,
        "meta_ephemeris_type": 0,
        "meta_classification_type": "U",
        "meta_norad_cat_id": 38091,
        "meta_element_set_no": 999,
        "meta_rev_at_epoch": 5040,
        "meta_bstar": 0,
        "meta_mean_motion_dot": 7.4e-07,
        "meta_mean_motion_ddot": 0,
        "tle_line1": "1 38091U 12008A   25337.50962522  .00000074  00000+0  00000+0 0  9992",
        "tle_line2": "2 38091   3.0845  70.7341 0012325 225.5074  18.5234  1.00272325 50407"
      },
      "geometry": {
        "type": "Point",
        "coordinates": [
          -171.19825335711184,
          2.706215455227269
        ]
      }
    }
  ]
}